{
  "type": "FeatureCollection",
  "features": [
    {
      "type": "Feature",
      "properties": {
        "norad_id": 34010,
        "name": "COSMOS 2251 DEB",
        "group": "cosmos-2251-debris",
        "lat": -17.92956725273868,
        "lon": 130.54266804397716,
        "alt_km": 525.5661260413026,
        "timestamp": "2025-12-02T06:27:53.404831+00:00",
        "meta_object_name": "COSMOS 2251 DEB",
        "meta_object_id": "1993-036GV",
        "meta_epoch": "2025-12-01T15:20:10.972032",
        "meta_mean_motion": 15.1579689,
        "meta_eccentricity": 0.00043333,
        "meta_inclination": 74.0001,
        "meta_ra_of_asc_node": 306.5306,
        "meta_arg_of_pericenter": 49.6569,
        "meta_mean_anomaly": 310.5004,
        "meta_ephemeris_type": 0,
        "meta_classification_type": "U",
        "meta_norad_cat_id": 34010,
        "meta_element_set_no": 999,
        "meta_rev_at_epoch": 89117,
        "meta_bstar": 0.0041685606,
        "meta_mean_motion_dot": 0.00080507,
        "meta_mean_motion_ddot": 0,
        "tle_line1": "1 34010U 93036GV  25335.63901588  .00080507  00000+0  41686-2 0  9993",
        "tle_line2": "2 34010  74.0001 306.5306 0004333  49.6569 310.5004 15.15796890891177"
      },
      "geometry": {
        "type": "Point",
        "coordinates": [
          130.54266804397716,
          -17.92956725273868
        ]
      }
    },
    {
      "type": "Feature",
      "properties": {
        "norad_id": 34011,
        "name": "COSMOS 2251 DEB",
        "group": "cosmos-2251-debris",
        "lat": -59.31178571901779,
        "lon": -39.3040316831526,
        "alt_km": 778.8775503113802,
        "timestamp": "2025-12-02T06:27:53.404841+00:00",
        "meta_object_name": "COSMOS 2251 DEB",
        "meta_object_id": "1993-036GW",
        "meta_epoch": "2025-12-01T10:46:28.562880",
        "meta_mean_motion": 14.41683119,
        "meta_eccentricity": 0.0035135,
        "meta_inclination": 74.0146,
        "meta_ra_of_asc_node": 351.0996,
        "meta_arg_of_pericenter": 78.3801,
        "meta_mean_anomaly": 282.1295,
        "meta_ephemeris_type": 0,
        "meta_classification_type": "U",
        "meta_norad_cat_id": 34011,
        "meta_element_set_no": 999,
        "meta_rev_at_epoch": 87753,
        "meta_bstar": 0.00083148102,
        "meta_mean_motion_dot": 2.705e-05,
        "meta_mean_motion_ddot": 0,
        "tle_line1": "1 34011U 93036GW  25335.44894170  .00002705  00000+0  83148-3 0  9995",
        "tle_line2": "2 34011  74.0146 351.0996 0035135  78.3801 282.1295 14.41683119877537"
      },
      "geometry": {
        "type": "Point",
        "coordinates": [
          -39.3040316831526,
          -59.31178571901779
        ]
      }
    },
    {
      "type": "Feature",
      "properties": {
        "norad_id": 34014,
        "name": "COSMOS 2251 DEB",
        "group": "cosmos-2251-debris",
        "lat": 42.16762619447736,
        "lon": 106.10190952782034,
        "alt_km": 631.9900603238639,
        "timestamp": "2025-12-02T06:27:53.404851+00:00",
        "meta_object_name": "COSMOS 2251 DEB",
        "meta_object_id": "1993-036GZ",
        "meta_epoch": "2025-12-01T09:14:13.704576",
        "meta_mean_motion": 14.72901233,
        "meta_eccentricity": 0.00367055,
        "meta_inclination": 74.0165,
        "meta_ra_of_asc_node": 302.8724,
        "meta_arg_of_pericenter": 85.7569,
        "meta_mean_anomaly": 41.5225,
        "meta_ephemeris_type": 0,
        "meta_classification_type": "U",
        "meta_norad_cat_id": 34014,
        "meta_element_set_no": 999,
        "meta_rev_at_epoch": 89136,
        "meta_bstar": 0.0012468389,
        "meta_mean_motion_dot": 8.053e-05,
        "meta_mean_motion_ddot": 0,
        "tle_line1": "1 34014U 93036GZ  25335.38488084  .00008053  00000+0  12468-2 0  9992",
        "tle_line2": "2 34014  74.0165 302.8724 0036705  85.7569  41.5225 14.72901233891362"
      },
      "geometry": {
        "type": "Point",
        "coordinates": [
          106.10190952782034,
          42.16762619447736
        ]
      }
    },
    {
      "type": "Feature",
      "properties": {
        "norad_id": 34015,
        "name": "COSMOS 2251 DEB",
        "group": "cosmos-2251-debris",
        "lat": 16.29583835998061,
        "lon": -175.77357356182924,
        "alt_km": 696.0013416206402,
        "timestamp": "2025-12-02T06:27:53.404861+00:00",
        "meta_object_name": "COSMOS 2251 DEB",
        "meta_object_id": "1993-036HA",
        "meta_epoch": "2025-12-01T20:34:50.605824",
        "meta_mean_motion": 14.60034701,
        "meta_eccentricity": 0.0021316,
        "meta_inclination": 74.024,
        "meta_ra_of_asc_node": 180.2084,
        "meta_arg_of_pericenter": 277.6953,
        "meta_mean_anomaly": 95.3577,
        "meta_ephemeris_type": 0,
        "meta_classification_type": "U",
        "meta_norad_cat_id": 34015,
        "meta_element_set_no": 999,
        "meta_rev_at_epoch": 88372,
        "meta_bstar": 0.001053,
        "meta_mean_motion_dot": 5.047e-05,
        "meta_mean_motion_ddot": 0,
        "tle_line1": "1 34015U 93036HA  25335.85753016  .00005047  00000+0  10530-2 0  9993",
        "tle_line2": "2 34015  74.0240 180.2084 0021316 277.6953  95.3577 14.60034701883727"
      },
      "geometry": {
        "type": "Point",
        "coordinates": [
          -175.77357356182924,
          16.29583835998061
        ]
      }
    },
    {
      "type": "Feature",
      "properties": {
        "norad_id": 34018,
        "name": "COSMOS 2251 DEB",
        "group": "cosmos-2251-debris",
        "lat": -71.07859230477695,
        "lon": -12.616075152724394,
        "alt_km": 1036.212278189405,
        "timestamp": "2025-12-02T06:27:53.404871+00:00",
        "meta_object_name": "COSMOS 2251 DEB",
        "meta_object_id": "1993-036HD",
        "meta_epoch": "2025-12-01T19:22:37.523136",
        "meta_mean_motion": 13.8104313,
        "meta_eccentricity": 0.0264409,
        "meta_inclination": 73.8766,
        "meta_ra_of_asc_node": 110.6212,
        "meta_arg_of_pericenter": 148.559,
        "meta_mean_anomaly": 332.5426,
        "meta_ephemeris_type": 0,
        "meta_classification_type": "U",
        "meta_norad_cat_id": 34018,
        "meta_element_set_no": 999,
        "meta_rev_at_epoch": 84506,
        "meta_bstar": 0.000666,
        "meta_mean_motion_dot": 8.95e-06,
        "meta_mean_motion_ddot": 0,
        "tle_line1": "1 34018U 93036HD  25335.80737874  .00000895  00000+0  66600-3 0  9991",
        "tle_line2": "2 34018  73.8766 110.6212 0264409 148.5590 332.5426 13.81043130845067"
      },
      "geometry": {
        "type": "Point",
        "coordinates": [
          -12.616075152724394,
          -71.07859230477695
        ]
      }
    },
    {
      "type": "Feature",
      "properties": {
        "norad_id": 34019,
        "name": "COSMOS 2251 DEB",
        "group": "cosmos-2251-debris",
        "lat": -11.603869427384307,
        "lon": -106.61800101508811,
        "alt_km": 760.7033370362551,
        "timestamp": "2025-12-02T06:27:53.404880+00:00",
        "meta_object_name": "COSMOS 2251 DEB",
        "meta_object_id": "1993-036HE",
        "meta_epoch": "2025-12-01T15:01:15.071232",
        "meta_mean_motion": 14.33841757,
        "meta_eccentricity": 0.00626765,
        "meta_inclination": 73.9546,
        "meta_ra_of_asc_node": 71.1768,
        "meta_arg_of_pericenter": 253.964,
        "meta_mean_anomaly": 218.3144,
        "meta_ephemeris_type": 0,
        "meta_classification_type": "U",
        "meta_norad_cat_id": 34019,
        "meta_element_set_no": 999,
        "meta_rev_at_epoch": 87361,
        "meta_bstar": 0.0010320377,
        "meta_mean_motion_dot": 2.91e-05,
        "meta_mean_motion_ddot": 0,
        "tle_line1": "1 34019U 93036HE  25335.62586888  .00002910  00000+0  10320-2 0  9996",
        "tle_line2": "2 34019  73.9546  71.1768 0062676 253.9640 218.3144 14.33841757873610"
      },
      "geometry": {
        "type": "Point",
        "coordinates": [
          -106.61800101508811,
          -11.603869427384307
        ]
      }
    },
    {
      "type": "Feature",
      "properties": {
        "norad_id": 34021,
        "name": "COSMOS 2251 DEB",
        "group": "cosmos-2251-debris",
        "lat": 46.263053394050075,
        "lon": 166.8959141986115,
        "alt_km": 727.665064773928,
        "timestamp": "2025-12-02T06:27:53.404890+00:00",
        "meta_object_name": "COSMOS 2251 DEB",
        "meta_object_id": "1993-036HG",
        "meta_epoch": "2025-12-01T18:43:07.851072",
        "meta_mean_motion": 14.49881217,
        "meta_eccentricity": 0.0020662,
        "meta_inclination": 74.0342,
        "meta_ra_of_asc_node": 150.4052,
        "meta_arg_of_pericenter": 295.4903,
        "meta_mean_anomaly": 79.5852,
        "meta_ephemeris_type": 0,
        "meta_classification_type": "U",
        "meta_norad_cat_id": 34021,
        "meta_element_set_no": 999,
        "meta_rev_at_epoch": 88471,
        "meta_bstar": 0.00045228,
        "meta_mean_motion_dot": 1.724e-05,
        "meta_mean_motion_ddot": 0,
        "tle_line1": "1 34021U 93036HG  25335.77995198  .00001724  00000+0  45228-3 0  9991",
        "tle_line2": "2 34021  74.0342 150.4052 0020662 295.4903  79.5852 14.49881217884716"
      },
      "geometry": {
        "type": "Point",
        "coordinates": [
          166.8959141986115,
          46.263053394050075
        ]
      }
    }
  ]
}